KUIPER-00053            
1 64513U 25134P   25201.71025561  .00017616  00000+0  49948-3 0  9998
2 64513  51.8772 199.4050 0001757 170.3298 189.7722 15.36316931  5435
KUIPER-00054            
1 64514U 25134Q   25201.71385551  .00020873  00000+0  59239-3 0  9990
2 64514  51.8760 199.4293 0002573 179.8317 180.2670 15.36167558  5432
KUIPER-00055            
1 64515U 25134R   25202.22273092  .00011641  00000+0  32913-3 0  9997
2 64515  51.8762 196.8433 0000802  86.1519 273.9559 15.36773896  5365
KUIPER-00056            
1 64516U 25134S   25201.71754344  .00017517  00000+0  50364-3 0  9993
2 64516  51.8733 199.4526 0003134 193.4908 166.5995 15.35882189  5435
KUIPER-00057            
1 64517U 25134T   25201.27622892  .00012820  00000+0  38203-3 0  9997
2 64517  51.8691 201.7350 0006546 200.0586 160.0143 15.35007985  5367
KUIPER-00058            
1 64518U 25134U   25201.72375962  .00018946  00000+0  54942-3 0  9994
2 64518  51.8714 199.4894 0004552 204.1859 155.8914 15.35552799  5437
KUIPER-00059            
1 64519U 25134V   25202.22408797  .00837433  00000+0  20475-1 0  9996
2 64519  51.8759 196.8474 0016597 189.4248 170.6430 15.37754601  5044
KUIPER-00060            
1 64520U 25134W   25202.16334808  .00022412  00000+0  62809-3 0  9994
2 64520  51.8756 197.1932 0002820 152.2467 207.8670 15.36515947  5047
